satname,norad_id,inclination_deg,eccentricity,mean_motion_rev_per_day,perigee_km,apogee_km,l1,l2
STARLINK-1234,45190,53.0333,0.0001923,15.84546566,316.31421042404963,318.8893915669123,1 45190U 20012N   26188.91668980  .00005664  00000+0  27303-4 0  9995,2 45190  53.0333  89.4361 0001923 201.5263 167.0045 15.84546566  5944
STARLINK-1269,45197,53.1531,0.0003163,15.37512343,451.3074723395812,455.6291458581163,1 45197U 20012V   26188.06598342  .00034323  00000+0  92542-3 0  9992,2 45197  53.1531 202.8167 0003163  19.9034 340.2093 15.37512343353221
STARLINK-1154,45198,53.0407,0.0004879,15.66190313,366.5252778564136,373.1099319598834,1 45198U 20012W   26188.29152227  .00037065  00000+0  35680-3 0  9992,2 45198  53.0407 150.1788 0004879  65.1962 294.9560 15.66190313353927
STARLINK-1199,45201,53.1539,0.0005786,15.37481351,449.6072948798328,457.5129347811153,1 45201U 20012Z   26188.42742231  .00034533  00000+0  93162-3 0  9998,2 45201  53.1539 185.3909 0005786  24.2903 335.8372 15.37481351353528
STARLINK-1209,45206,53.0349,0.0001181,15.73950329,346.82549017892234,348.4141139355679,1 45206U 20012AE  26188.16349515  .00055177  00000+0  38242-3 0  9997,2 45206  53.0349 109.9685 0001181 163.6266 196.4790 15.73950329353586
STARLINK-1231,45212,53.037,0.0002723,15.2973723,474.7306214335149,478.4637096600709,1 45212U 20012AL  26188.35963293  .00025908  00000+0  89635-3 0  9991,2 45212  53.0370 182.1883 0002723  82.8235 277.3074 15.29737230353490
STARLINK-1271,45217,53.153,0.0005325,15.37633829,449.4708299781996,456.74610640182254,1 45217U 20012AR  26188.03138401  .00028115  00000+0  75740-3 0  9991,2 45217  53.1530 187.3340 0005325  22.3392 337.7843 15.37633829353463
STARLINK-1191,45222,53.1527,0.000338,15.41870405,438.284588696034,442.8940476871312,1 45222U 20012AW  26187.22031816  .00015918  00000+0  37806-3 0  9997,2 45222  53.1527 163.3088 0003380  11.3365 348.7716 15.41870405353734
STARLINK-1212,45223,53.037,0.0001441,15.72698406,350.2189248026707,352.1583164465346,1 45223U 20012AX  26188.74892897  .00053490  00000+0  39130-3 0  9999,2 45223  53.0370 122.6281 0001441 144.6268 215.4846 15.72698406354414
STARLINK-1215,45225,53.1543,0.0006289,15.37699722,448.6172657396237,457.20936082366916,1 45225U 20012AZ  26187.89806538  .00017055  00000+0  46316-3 0  9994,2 45225  53.1543 162.1998 0006289  27.5930 332.5407 15.37699722353767
STARLINK-1221,45227,53.0633,0.0002838,15.46367934,425.43023161044766,429.2930326340402,1 45227U 20012BB  26187.89020159  .00012274  00000+0  25271-3 0  9998,2 45227  53.0633  63.0352 0002838  52.1116 308.0147 15.46367934355125
STARLINK-1222,45228,53.05,0.0004357,15.57302654,392.5160879606701,398.4186067889723,1 45228U 20012BC  26188.23624992  .00037828  00000+0  51299-3 0  9994,2 45228  53.0500 126.4098 0004357  55.0908 305.0512 15.57302654354200
STARLINK-1226,45229,53.1533,0.0005249,15.47390088,420.79367968642055,427.934945564416,1 45229U 20012BD  26188.33586270  .00049008  00000+0  94440-3 0  9990,2 45229  53.1533 154.2487 0005249  31.7581 328.3743 15.47390088353859
STARLINK-1227,45230,53.1513,0.00051,15.47383292,420.9149441925565,427.8535158471768,1 45230U 20012BE  26187.24590252  .00081448  00000+0  15579-2 0  9995,2 45230  53.1513 159.5286 0005100  22.2815 337.8414 15.47383292353809
STARLINK-1246,45235,53.1527,0.0004896,15.37683524,449.61677978984335,456.30579123101506,1 45235U 20012BK  26188.07065713  .00037734  00000+0  10101-2 0  9996,2 45235  53.1527 202.4019 0004896 357.8957   2.2025 15.37683524353289
STARLINK-1270,45237,53.0383,0.0001729,15.71614753,353.11754705656494,355.4456174022989,1 45237U 20012BM  26188.23474448  .00050691  00000+0  38855-3 0  9999,2 45237  53.0383 127.0659 0001729 148.8378 211.2742 15.71614753354307
STARLINK-1279,45360,53.0313,0.0004029,15.85680282,311.71348573161777,317.1063400340199,1 45360U 20019A   26188.91668980  .00089068  00000+0  35874-3 0  9992,2 45360  53.0313 223.9148 0004029  18.5781 261.2381 15.85680282  5798
STARLINK-1301,45361,53.0305,0.0006121,15.87259499,305.8762951846311,314.06387587873814,1 45361U 20019B   26188.91668980  .00174847  00000+0  64260-3 0  9994,2 45361  53.0305 225.8978 0006121  20.8070 339.1847 15.87259499  5969
STARLINK-1262,45366,53.1537,0.0001805,15.36745163,454.5082721947347,456.97530243695564,1 45366U 20019G   26188.38629865  .00039368  00000+0  10858-2 0  9990,2 45366  53.1537 327.5827 0001805 238.6612 121.4215 15.36745163348109
STARLINK-1273,45367,53.0421,0.0001257,15.615102,382.4441490611971,384.1439728299183,1 45367U 20019H   26188.30619650  .00072411  00000+0  82860-3 0  9993,2 45367  53.0421 298.2718 0001257 327.8762  32.2174 15.61510200348486
STARLINK-1277,45369,53.0402,0.0002422,15.7027272,356.4854213754652,359.748462785009,1 45369U 20019K   26188.29257259  .00046903  00000+0  38076-3 0  9993,2 45369  53.0402 290.5480 0002422   6.8899 353.2151 15.70272720348593
STARLINK-1281,45370,53.157,0.0001397,15.37554351,452.3895183800869,454.2982341369143,1 45370U 20019L   26188.38190573  .00038625  00000+0  10382-2 0  9991,2 45370  53.1570 327.0664 0001397 198.2783 161.8171 15.37554351348119
STARLINK-1300,45374,53.1571,0.0001789,15.38115511,450.4603401846425,452.9040494925557,1 45374U 20019Q   26188.38293822  .00034219  00000+0  90491-3 0  9991,2 45374  53.1571 326.8471 0001789 222.3005 137.7861 15.38115511348118
STARLINK-1302,45375,53.0433,9.76e-05,15.7053403,356.7123376101563,358.02710852249857,1 45375U 20019R   26188.26314513  .00045471  00000+0  36538-3 0  9994,2 45375  53.0433 286.4968 0000976  95.3284 264.7844 15.70534030348648
STARLINK-1304,45376,53.0403,5.41e-05,15.6625453,369.2681035689475,369.99821230003636,1 45376U 20019S   26188.27841335  .00036207  00000+0  34796-3 0  9994,2 45376  53.0403 288.6134 0000541 266.4226  93.6727 15.66254530348615
STARLINK-1305,45377,53.0354,0.0006499,15.75626987,338.4796408397806,347.21557663421754,1 45377U 20019T   26188.25911735  .00059754  00000+0  38420-3 0  9995,2 45377  53.0354 265.3463 0006499 354.7785   5.3165 15.75626987348948
STARLINK-1319,45379,53.0342,0.0003519,15.83426767,318.40090429079373,323.1155867645957,1 45379U 20019V   26188.91668980  .00041770  00000+0  19012-3 0  9996,2 45379  53.0342 252.2665 0003519  13.7513 311.0055 15.83426767  5327
STARLINK-1266,45383,53.0432,0.0003692,15.68746205,359.9975366560002,364.97481280822194,1 45383U 20019Z   26188.24778552  .00040458  00000+0  35067-3 0  9994,2 45383  53.0432 273.1904 0003692 353.1750   6.9215 15.68746205348824
STARLINK-1267,45384,53.0404,0.0002248,15.73229306,348.1622101896828,351.1870342950442,1 45384U 20019AA  26188.24081895  .00049302  00000+0  35311-3 0  9991,2 45384  53.0404 263.9994 0002248  26.1967 333.9164 15.73229306348957
STARLINK-1272,45386,53.037,0.0002641,15.78154728,333.89587800004574,337.44211032616295,1 45386U 20019AC  26188.17954284  .00068294  00000+0  39218-3 0  9997,2 45386  53.0370 242.1143 0002641  39.7885 320.3328 15.78154728349258
STARLINK-1274,45387,53.0171,0.0005879,15.67989404,360.69085204215935,368.61902680453295,1 45387U 20019AD  26188.91668980  .00102075  00000+0  89756-3 0  9993,2 45387  53.0171 239.5799 0005879 309.9177 223.3429 15.67989404  5952
STARLINK-1280,45388,53.031,0.0006538,15.90488022,296.54948755949044,305.2830175925592,1 45388U 20019AE  26188.91668980  .00167160  21315-4  54130-3 0  9995,2 45388  53.0310 243.2706 0006538  13.8179 189.4290 15.90488022  6027
STARLINK-1283,45389,53.0325,0.000425,15.75704199,339.771722542062,345.484372832595,1 45389U 20019AF  26188.45506524  .00081811  00000+0  52174-3 0  9997,2 45389  53.0325 239.8733 0004250 345.8941  14.1958 15.75704199349315
STARLINK-1284,45390,53.0388,0.0003594,15.73589114,346.2314139856826,351.0666277774926,1 45390U 20019AG  26187.48946342  .00057975  00000+0  40764-3 0  9993,2 45390  53.0388 268.9495 0003594  55.3483 304.7874 15.73589114348813
STARLINK-1297,45395,53.0394,0.0003042,15.76783017,337.5186570972455,341.6057052790802,1 45395U 20019AM  26188.69316620  .00060423  00000+0  36956-3 0  9992,2 45395  53.0394 261.7970 0003042  17.8358 342.2767 15.76783017348208
STARLINK-1307,45397,53.051,0.0001356,15.5878167,390.26409200108264,392.09993131704414,1 45397U 20019AP  26188.26426672  .00031899  00000+0  41071-3 0  9995,2 45397  53.0510 273.0908 0001356 346.1063  13.9911 15.58781670348659
STARLINK-1255,45399,53.032,8.11e-05,15.68579085,362.4182371273282,363.5116438620771,1 45399U 20019AR  26187.42472909  .00041584  00000+0  36280-3 0  9996,2 45399  53.0320 243.0001 0000811 296.7614  63.3319 15.68579085348981
STARLINK-1260,45404,53.1537,0.0001396,15.40797409,442.8022769663994,444.7069491047596,1 45404U 20019AW  26188.29982728  .00048037  00000+0  11576-2 0  9994,2 45404  53.1537 289.5017 0001396 243.2495 116.8368 15.40797409348344
STARLINK-1263,45405,53.1552,0.0002464,15.37855614,450.76860730919634,454.1347214029911,1 45405U 20019AX  26188.32686894  .00030334  00000+0  81050-3 0  9990,2 45405  53.1552 291.2574 0002464 270.5977  89.4744 15.37855614348325
STARLINK-1265,45406,53.1548,0.0001176,15.41242512,441.63903141616447,443.243231392672,1 45406U 20019AY  26188.28509171  .00043204  00000+0  10275-2 0  9998,2 45406  53.1548 289.4820 0001176 324.4802  35.6125 15.41242512348349
STARLINK-1278,45408,53.0367,0.0002286,15.77895326,334.8698515632177,337.9397400722655,1 45408U 20019BA  26188.19307576  .00067250  00000+0  39081-3 0  9999,2 45408  53.0367 262.9979 0002286  31.2418 328.8737 15.77895326348688
STARLINK-1296,45412,53.1543,0.000137,15.41380036,441.1010676451979,442.9697948913663,1 45412U 20019BE  26188.45069599  .00035553  00000+0  84426-3 0  9997,2 45412  53.1543 288.3460 0001370 221.3806 138.7096 15.41380036348373
STARLINK-1309,45414,53.0567,0.0002823,15.76188996,339.35299933980787,343.1467651735302,1 45414U 20019BG  26188.17384166  .00058763  00000+0  36912-3 0  9993,2 45414  53.0567 257.3841 0002823  29.5242 330.5936 15.76188996348740
